GLOBALSTAR M045         
1 25676U 99019A   25127.23444528 -.00000092  00000+0  17727-4 0  9992
2 25676  51.9981  61.9905 0000720  82.3958  84.2656 12.27061717188603
GLOBALSTAR M019         
1 25677U 99019B   25127.34567481 -.00000124  00000+0 -35178-3 0  9995
2 25677  51.9860 189.1675 0001440 227.2272 212.1084 12.13873122180375
GLOBALSTAR M044         
1 25678U 99019C   25127.38700130 -.00000055  00000+0  39922-3 0  9993
2 25678  51.9935 135.3093 0006263 322.0861 183.0805 11.90249621166446
GLOBALSTAR M042         
1 25679U 99019D   25127.51968480 -.00000054  00000+0  35732-3 0  9997
2 25679  51.9982 165.7599 0003053 213.8122 313.2511 12.22082242180355
GLOBALSTAR M025         
1 25770U 99031A   25126.62033687 -.00000072  00000+0 -15163-3 0  9993
2 25770  51.9815 255.5642 0002025  98.1633 274.6064 11.22557966477045
GLOBALSTAR M049         
1 25771U 99031B   25126.91341321 -.00000090  00000+0 -85839-3 0  9990
2 25771  51.9877 287.5750 0001965 303.3741  56.6867 11.12112326112830
GLOBALSTAR M047         
1 25772U 99031C   25126.90969596 -.00000069  00000+0  18458-4 0  9999
2 25772  51.9838 288.4967 0016682 189.5190 170.5302 11.31927886466436
GLOBALSTAR M052         
1 25773U 99031D   25127.19807131 -.00000073  00000+0 -22375-3 0  9996
2 25773  51.9897  36.1777 0002898  96.3886  74.6673 11.15059034131763
